{"type":"FeatureCollection","features":[{"type":"Feature","properties":{"name":"Gedung Vokasi"},"geometry":{"type":"Polygon","coordinates":[[[107.575247,-6.873214],[107.575225,-6.873581],[107.575792,-6.87363],[107.575814,-6.873265],[107.575247,-6.873214]]]}},{"type":"Feature","properties":{"name":"Masjid Nurul Ilmi ULBI"},"geometry":{"type":"Polygon","coordinates":[[[107.575895,-6.872938],[107.576,-6.872955],[107.576038,-6.872793],[107.575937,-6.872769],[107.575895,-6.872938]]]}},{"type":"Feature","properties":{"name":"Gedung Rafflesia"},"geometry":{"type":"Polygon","coordinates":[[[107.575454,-6.873008],[107.575839,-6.873057],[107.575888,-6.872605],[107.575518,-6.872556],[107.575454,-6.873008]]]}},{"type":"Feature","properties":{"name":"Gedung FLTB"},"geometry":{"type":"Polygon","coordinates":[[[107.576166,-6.87248],[107.576099,-6.872955],[107.576446,-6.873006],[107.576514,-6.872541],[107.576166,-6.87248]]]}},{"type":"Feature","properties":{"name":"Gedung Olahraga ULBI"},"geometry":{"type":"Polygon","coordinates":[[[107.576546,-6.873168],[107.5765,-6.873438],[107.576812,-6.873483],[107.576845,-6.873202],[107.576546,-6.873168]]]}},{"type":"Feature","properties":{"name":"Lapangan Tennis ULBI"},"geometry":{"type":"Polygon","coordinates":[[[107.576761,-6.872755],[107.576728,-6.873018],[107.57699,-6.873052],[107.577021,-6.87279],[107.576761,-6.872755]]]}},{"type":"Feature","properties":{"name":"Asrama Gandaria"},"geometry":{"type":"Polygon","coordinates":[[[107.575005,-6.87367],[107.574958,-6.873971],[107.575428,-6.874118],[107.575463,-6.873752],[107.575005,-6.87367]]]}},{"type":"Feature","properties":{"name":"Auditorium ULBI"},"geometry":{"type":"Polygon","coordinates":[[[107.576061,-6.873246],[107.576015,-6.873604],[107.576269,-6.873644],[107.576315,-6.873289],[107.576061,-6.873246]]]}},{"type":"Feature","properties":{},"geometry":{"type":"Polygon","coordinates":[[[107.57557,-6.87365],[107.57557,-6.87365],[107.57557,-6.87365],[107.57557,-6.87365]]]}},{"type":"Feature","properties":{"name":"Gedung Rektorat ULBI"},"geometry":{"type":"Polygon","coordinates":[[[107.575564,-6.87365],[107.575559,-6.87381],[107.575873,-6.873864],[107.575911,-6.873712],[107.575564,-6.87365]]]}},{"type":"Feature","properties":{"name":"Pos SATPAM ULBI"},"geometry":{"type":"Polygon","coordinates":[[[107.575882,-6.87407],[107.575872,-6.87416],[107.575936,-6.87417],[107.575946,-6.874082],[107.575882,-6.87407]]]}},{"type":"Feature","properties":{"name":"Kantor Pos Bandung Pusdiklatpos"},"geometry":{"type":"Polygon","coordinates":[[[107.57587,-6.874166],[107.575856,-6.874271],[107.575985,-6.874292],[107.576002,-6.874186],[107.57587,-6.874166]]]}},{"type":"Feature","properties":{"name":"LSP IND Logistik Indonesia"},"geometry":{"type":"Polygon","coordinates":[[[107.575537,-6.874695],[107.575644,-6.874739],[107.575744,-6.874476],[107.575639,-6.874433],[107.575537,-6.874695]]]}},{"type":"Feature","properties":{"name":"Gedung Anggrek"},"geometry":{"type":"Polygon","coordinates":[[[107.57683,-6.87211],[107.57677,-6.872561],[107.577155,-6.872627],[107.577214,-6.872165],[107.57683,-6.87211]]]}},{"type":"Feature","properties":{"name":"Pendopo ULBI"},"geometry":{"type":"Polygon","coordinates":[[[107.576003,-6.873111],[107.575988,-6.873216],[107.576091,-6.873234],[107.576109,-6.873123],[107.576003,-6.873111]]]}},{"type":"Feature","properties":{"name":"Logic Coffee ULBI"},"geometry":{"type":"Polygon","coordinates":[[[107.576256,-6.873751],[107.576221,-6.873698],[107.576106,-6.873759],[107.576146,-6.873817],[107.576256,-6.873751]]]}},{"type":"Feature","properties":{"name":"Center Of Technology"},"geometry":{"type":"Polygon","coordinates":[[[107.576472,-6.873556],[107.576445,-6.873667],[107.576603,-6.873696],[107.576634,-6.873585],[107.576472,-6.873556]]]}},{"type":"Feature","properties":{"name":"Kantin Oren"},"geometry":{"type":"Polygon","coordinates":[[[107.57657,-6.873467],[107.576553,-6.873551],[107.576824,-6.873607],[107.576839,-6.873512],[107.57657,-6.873467]]]}},{"type":"Feature","properties":{"name":"Student Center ULBI"},"geometry":{"type":"Polygon","coordinates":[[[107.575309,-6.873162],[107.575873,-6.873248],[107.575884,-6.873189],[107.575321,-6.873105],[107.575309,-6.873162]]]}}]}